NORAD_CAT_ID,OBJECT_NAME,OBJECT_TYPE,EPOCH,MEAN_MOTION,ECCENTRICITY,INCLINATION,RA_OF_ASC_NODE,ARG_OF_PERICENTER,MEAN_ANOMALY,BSTAR,MEAN_MOTION_DOT,MEAN_MOTION_DDOT,TLE_LINE0,TLE_LINE1,TLE_LINE2,SEMIMAJOR_AXIS,PERIOD,APOGEE,PERIGEE,DECAYED
52292.0,STARLINK-3753,PAYLOAD,2024-04-25 21:08:17,15.08840394,0.0001158,53.2172,284.3662,100.54,259.5723,9.501e-05,1.225e-05,0.0,0 STARLINK-3753,1 52292U 22041AH  24116.88075250  .00001225  00000-0  95010-4 0  9997,2 52292  53.2172 284.3662 0001158 100.5400 259.5723 15.08840394112647,6917.879,95.438,540.545,538.943,0.0
52292.0,STARLINK-3753,PAYLOAD,2024-04-26 14:37:31,15.08841215,0.0001144,53.2179,281.0925,89.8157,270.2966,5.5954e-05,6.03e-06,0.0,0 STARLINK-3753,1 52292U 22041AH  24117.60939346  .00000603  00000-0  55954-4 0  9995,2 52292  53.2179 281.0925 0001144  89.8157 270.2966 15.08841215111532,6917.877,95.437,540.533,538.95,0.0
52292.0,STARLINK-3753,PAYLOAD,2024-04-26 17:48:17,15.08854358,0.0001034,53.2173,280.5004,77.8136,282.2972,0.00034492,5.208e-05,0.0,0 STARLINK-3753,1 52292U 22041AH  24117.74186752  .00005208  00000-0  34492-3 0  9994,2 52292  53.2173 280.5004 0001034  77.8136 282.2972 15.08854358111554,6917.837,95.437,540.417,538.986,0.0
52292.0,STARLINK-3753,PAYLOAD,2024-04-27 03:20:36,15.0884677,0.0001069,53.2172,278.7197,72.0206,288.0903,0.00021987,3.214e-05,0.0,0 STARLINK-3753,1 52292U 22041AH  24118.13930976  .00003214  00000-0  21987-3 0  9993,2 52292  53.2172 278.7197 0001069  72.0206 288.0903 15.08846770112837,6917.86,95.437,540.464,538.985,0.0
52292.0,STARLINK-3753,PAYLOAD,2024-04-27 14:28:18,15.08852835,0.0001172,53.2185,276.6411,87.016,273.0966,0.00014664,2.047e-05,0.0,0 STARLINK-3753,1 52292U 22041AH  24118.60298656  .00002047  00000-0  14664-3 0  9994,2 52292  53.2185 276.6411 0001172  87.0160 273.0966 15.08852835111681,6917.841,95.437,540.517,538.895,0.0
52292.0,STARLINK-3753,PAYLOAD,2024-04-27 17:39:04,15.08856412,0.0001223,53.2186,276.048,92.0611,268.0522,0.00031153,4.676e-05,0.0,0 STARLINK-3753,1 52292U 22041AH  24118.73546435  .00004676  00000-0  31153-3 0  9991,2 52292  53.2186 276.0480 0001223  92.0611 268.0522 15.08856412111706,6917.83,95.437,540.541,538.849,0.0
52292.0,STARLINK-3753,PAYLOAD,2024-04-28 09:32:56,15.08832094,0.0001777,53.2182,273.0711,87.8676,272.2519,-4.4242e-05,-9.92e-06,0.0,0 STARLINK-3753,1 52292U 22041AH  24119.39787686 -.00000992  00000-0 -44242-4 0  9992,2 52292  53.2182 273.0711 0001777  87.8676 272.2519 15.08832094113023,6917.905,95.438,540.999,538.54,0.0
52292.0,STARLINK-3753,PAYLOAD,2024-04-28 14:19:06,15.08828421,0.0001772,53.218,272.1784,87.0839,273.0356,-0.00025462,-4.337e-05,0.0,0 STARLINK-3753,1 52292U 22041AH  24119.59659953 -.00004337  00000-0 -25462-3 0  9998,2 52292  53.2180 272.1784 0001772  87.0839 273.0356 15.08828421111833,6917.916,95.438,541.007,538.555,0.0
52292.0,STARLINK-3753,PAYLOAD,2024-04-28 17:29:53,15.08829971,0.0001139,53.2188,271.5853,92.6617,267.4505,-9.8635e-05,-1.857e-05,0.0,0 STARLINK-3753,1 52292U 22041AH  24119.72908670 -.00001857  00000-0 -98635-4 0  9993,2 52292  53.2188 271.5853 0001139  92.6617 267.4505 15.08829971113076,6917.911,95.438,540.564,538.988,0.0
52292.0,STARLINK-3753,PAYLOAD,2024-04-29 09:23:43,15.08837365,0.0001214,53.2203,268.6111,99.8947,260.2183,2.8669e-05,1.68e-06,0.0,0 STARLINK-3753,1 52292U 22041AH  24120.39148070  .00000168  00000-0  28669-4 0  9990,2 52292  53.2203 268.6111 0001214  99.8947 260.2183 15.08837365113177,6917.888,95.438,540.593,538.914,0.0
52292.0,STARLINK-3753,PAYLOAD,2024-04-29 18:56:01,15.08850274,0.0001026,53.2173,266.8259,73.5207,286.5898,0.00014216,1.976e-05,0.0,0 STARLINK-3753,1 52292U 22041AH  24120.78891161  .00001976  00000-0  14216-3 0  9999,2 52292  53.2173 266.8259 0001026  73.5207 286.5898 15.08850274113230,6917.849,95.437,540.424,539.004,0.0
52292.0,STARLINK-3753,PAYLOAD,2024-04-30 02:53:00,15.08789711,0.0001134,53.216,265.342,75.306,284.8058,-0.00049604,-8.163e-05,0.0,0 STARLINK-3753,1 52292U 22041AH  24121.12014967 -.00008163  00000-0 -49604-3 0  9995,2 52292  53.2160 265.3420 0001134  75.3060 284.8058 15.08789711113288,6918.034,95.441,540.684,539.115,0.0
52292.0,STARLINK-3753,PAYLOAD,2024-04-30 14:00:41,15.0882589,9.84e-05,53.2181,263.2595,50.4983,309.6096,0.00023914,3.519e-05,0.0,0 STARLINK-3753,1 52292U 22041AH  24121.58381857  .00003519  00000-0  23914-3 0  9994,2 52292  53.2181 263.2595 0000984  50.4983 309.6096 15.08825890112131,6917.924,95.438,540.469,539.108,0.0
52292.0,STARLINK-3753,PAYLOAD,2024-04-30 17:11:27,15.08846261,0.0001077,53.218,262.663,91.824,268.2875,0.00045097,6.898e-05,0.0,0 STARLINK-3753,1 52292U 22041AH  24121.71628806  .00006898  00000-0  45097-3 0  9996,2 52292  53.2180 262.6630 0001077  91.8240 268.2875 15.08846261113379,6917.861,95.437,540.471,538.981,0.0
52292.0,STARLINK-3753,PAYLOAD,2024-05-01 09:05:18,15.08861099,0.0001214,53.2177,259.6897,72.5086,287.6039,0.00051437,7.912e-05,0.0,0 STARLINK-3753,1 52292U 22041AH  24122.37868329  .00007912  00000-0  51437-3 0  9998,2 52292  53.2177 259.6897 0001214  72.5086 287.6039 15.08861099112252,6917.816,95.436,540.521,538.841,0.0
52292.0,STARLINK-3753,PAYLOAD,2024-05-01 15:26:50,15.08871179,0.0001218,53.2173,258.501,71.3623,288.7501,0.00067099,0.00010416,0.0,0 STARLINK-3753,1 52292U 22041AH  24122.64363639  .00010416  00000-0  67099-3 0  9996,2 52292  53.2173 258.5010 0001218  71.3623 288.7501 15.08871179113517,6917.785,95.436,540.493,538.808,0.0
52292.0,STARLINK-3753,PAYLOAD,2024-05-02 02:34:31,15.08869688,7.29e-05,53.2162,256.4199,66.0275,294.0794,0.00052612,8.102e-05,0.0,0 STARLINK-3753,1 52292U 22041AH  24123.10731104  .00008102  00000-0  52612-3 0  9998,2 52292  53.2162 256.4199 0000729  66.0275 294.0794 15.08869688113583,6917.79,95.436,540.159,539.15,0.0
52292.0,STARLINK-3753,PAYLOAD,2024-05-02 12:06:51,15.08841802,0.0001255,53.2162,254.6357,81.143,278.9704,-0.00017175,-3.02e-05,0.0,0 STARLINK-3753,1 52292U 22041AH  24123.50475934 -.00003020  00000-0 -17175-3 0  9999,2 52292  53.2162 254.6357 0001255  81.1430 278.9704 15.08841802113642,6917.875,95.437,540.608,538.872,0.0
52292.0,STARLINK-3753,PAYLOAD,2024-05-02 13:42:14,15.08848496,0.0001751,53.2161,254.3355,101.9934,258.1254,-6.7787e-05,-1.367e-05,0.0,0 STARLINK-3753,1 52292U 22041AH  24123.57099646 -.00001367  00000-0 -67787-4 0  9995,2 52292  53.2161 254.3355 0001751 101.9934 258.1254 15.08848496112439,6917.854,95.437,540.931,538.508,0.0
52292.0,STARLINK-3753,PAYLOAD,2024-05-02 18:28:23,15.08851691,0.0001564,53.217,253.4445,94.9003,265.2168,-4.4331e-05,-9.94e-06,0.0,0 STARLINK-3753,1 52292U 22041AH  24123.76971466 -.00000994  00000-0 -44331-4 0  9990,2 52292  53.2170 253.4445 0001564  94.9003 265.2168 15.08851691113681,6917.845,95.437,540.792,538.628,0.0
52292.0,STARLINK-3753,PAYLOAD,2024-05-03 15:08:23,15.08859138,0.0001395,53.2145,249.5791,86.9514,273.1638,0.00069939,0.00010866,0.0,0 STARLINK-3753,1 52292U 22041AH  24124.63082989  .00010866  00000-0  69939-3 0  9997,2 52292  53.2145 249.5791 0001395  86.9514 273.1638 15.08859138112596,6917.822,95.436,540.652,538.722,0.0
52292.0,STARLINK-3753,PAYLOAD,2024-05-03 18:19:09,15.08866104,0.000127,53.216,248.9847,84.6044,275.5093,0.00084571,0.00013207,0.0,0 STARLINK-3753,1 52292U 22041AH  24124.76330771  .00013207  00000-0  84571-3 0  9997,2 52292  53.2160 248.9847 0001270  84.6044 275.5093 15.08866104112618,6917.801,95.436,540.544,538.787,0.0
52292.0,STARLINK-3753,PAYLOAD,2024-05-04 13:23:48,15.08828695,0.0001395,53.2168,245.4148,101.743,258.3719,-4.6487e-05,-1.027e-05,0.0,0 STARLINK-3753,1 52292U 22041AH  24125.55819792 -.00001027  00000-0 -46487-4 0  9994,2 52292  53.2168 245.4148 0001395 101.7430 258.3719 15.08828695113955,6917.915,95.438,540.745,538.815,0.0
52292.0,STARLINK-3753,PAYLOAD,2024-05-05 13:14:35,15.08853644,0.0001273,53.2173,240.9562,99.3858,260.7278,0.00099775,0.00015633,0.0,0 STARLINK-3753,1 52292U 22041AH  24126.55179974  .00015633  00000-0  99775-3 0  9999,2 52292  53.2173 240.9562 0001273  99.3858 260.7278 15.08853644114109,6917.839,95.437,540.584,538.823,0.0
52292.0,STARLINK-3753,PAYLOAD,2024-05-05 14:49:58,15.08858008,0.0001287,53.2175,240.6591,100.1236,259.9901,0.0011076,0.00017392,0.0,0 STARLINK-3753,1 52292U 22041AH  24126.61803876  .00017392  00000-0  11076-2 0  9992,2 52292  53.2175 240.6591 0001287 100.1236 259.9901 15.08858008112892,6917.825,95.436,540.581,538.8,0.0
52292.0,STARLINK-3753,PAYLOAD,2024-05-06 00:22:17,15.08850508,0.0001519,53.2175,238.874,97.4482,262.6683,0.00039786,6.051e-05,0.0,0 STARLINK-3753,1 52292U 22041AH  24127.01547760  .00006051  00000-0  39786-3 0  9993,2 52292  53.2175 238.8740 0001519  97.4482 262.6683 15.08850508114174,6917.848,95.437,540.764,538.662,0.0
52292.0,STARLINK-3753,PAYLOAD,2024-05-06 14:40:45,15.0885861,0.0001466,53.2182,236.1997,103.1198,256.9958,0.00054179,8.349e-05,0.0,0 STARLINK-3753,1 52292U 22041AH  24127.61163416  .00008349  00000-0  54179-3 0  9996,2 52292  53.2182 236.1997 0001466 103.1198 256.9958 15.08858610113045,6917.824,95.436,540.703,538.674,0.0
52292.0,STARLINK-3753,PAYLOAD,2024-05-07 12:56:09,15.08842552,0.00015,53.2177,232.0364,127.1315,232.9814,0.00010542,1.39e-05,0.0,0 STARLINK-3753,1 52292U 22041AH  24128.53899496  .00001390  00000-0  10542-3 0  9997,2 52292  53.2177 232.0364 0001500 127.1315 232.9814 15.08842552114402,6917.873,95.437,540.775,538.7,0.0
52292.0,STARLINK-3753,PAYLOAD,2024-05-07 14:31:32,15.08845121,0.0001086,53.2169,231.7364,106.92,253.1912,0.00015026,2.105e-05,0.0,0 STARLINK-3753,1 52292U 22041AH  24128.60523537  .00002105  00000-0  15026-3 0  9992,2 52292  53.2169 231.7364 0001086 106.9200 253.1912 15.08845121113190,6917.865,95.437,540.481,538.978,0.0
52292.0,STARLINK-3753,PAYLOAD,2024-05-07 16:06:55,15.0884425,0.0001088,53.2169,231.4396,101.4065,258.7049,0.00015191,2.131e-05,0.0,0 STARLINK-3753,1 52292U 22041AH  24128.67147610  .00002131  00000-0  15191-3 0  9995,2 52292  53.2169 231.4396 0001088 101.4065 258.7049 15.08844250113209,6917.867,95.437,540.485,538.98,0.0
